start=new Date('2023-02-20T00:00:00.000Z').valueOf();
sats=[{"GP_ID":"226056764","OBJECT_ID":"2020-038AL","RA_OF_ASC_NODE":"177.4091","PERIOD":"95.590","MEAN_MOTION_DOT":"0.00005416","REV_AT_EPOCH":"14950","PERIAPSIS":"546.258","ELEMENT_SET_NO":"999","EPOCH":"2023-02-19T17:20:51.518400","LAUNCH_DATE":"2020-06-13","MEAN_MOTION":"15.06439581","ARG_OF_PERICENTER":"97.4141","TIME_SYSTEM":"UTC","BSTAR":"0.00038179000000","MEAN_ANOMALY":"262.6985","RCS_SIZE":"LARGE","FILE":"3811910","NORAD_CAT_ID":"45764","REF_FRAME":"TEME","EPHEMERIS_TYPE":"0","ECCENTRICITY":"0.00012050","APOAPSIS":"547.927","MEAN_MOTION_DDOT":"0.0000000000000","COUNTRY_CODE":"US","CLASSIFICATION_TYPE":"U","SEMIMAJOR_AXIS":"6925.227","SITE":"AFETR","CENTER_NAME":"EARTH","MEAN_ELEMENT_THEORY":"SGP4","INCLINATION":"53.0525","OBJECT_NAME":"STARLINK-1502","TLE_LINE2":"2 45764  53.0525 177.4091 0001205  97.4141 262.6985 15.06439581149500","DECAY_DATE":null,"TLE_LINE1":"1 45764U 20038AL  23050.72281850  .00005416  00000-0  38179-3 0  9999","OBJECT_TYPE":"PAYLOAD"},{"GP_ID":"226059977","OBJECT_ID":"2020-038AN","RA_OF_ASC_NODE":"177.7534","PERIOD":"95.591","PERIAPSIS":"546.470","REV_AT_EPOCH":"14948","ELEMENT_SET_NO":"999","MEAN_MOTION_DOT":"0.00005070","LAUNCH_DATE":"2020-06-13","EPOCH":"2023-02-19T15:29:26.176704","MEAN_MOTION":"15.06418931","ARG_OF_PERICENTER":"87.1198","TIME_SYSTEM":"UTC","MEAN_ANOMALY":"272.9905","BSTAR":"0.00035884000000","NORAD_CAT_ID":"45766","REF_FRAME":"TEME","FILE":"3812027","RCS_SIZE":"LARGE","EPHEMERIS_TYPE":"0","ECCENTRICITY":"0.00009900","APOAPSIS":"547.841","MEAN_MOTION_DDOT":"0.0000000000000","COUNTRY_CODE":"US","CLASSIFICATION_TYPE":"U","SEMIMAJOR_AXIS":"6925.291","CENTER_NAME":"EARTH","SITE":"AFETR","OBJECT_NAME":"STARLINK-1509","MEAN_ELEMENT_THEORY":"SGP4","INCLINATION":"53.0548","DECAY_DATE":null,"TLE_LINE2":"2 45766  53.0548 177.7534 0000990  87.1198 272.9905 15.06418931149489","TLE_LINE1":"1 45766U 20038AN  23050.64544186  .00005070  00000-0  35884-3 0  9992","OBJECT_TYPE":"PAYLOAD"},{"SITE":"AFETR","CENTER_NAME":"EARTH","SEMIMAJOR_AXIS":"6925.441","CLASSIFICATION_TYPE":"U","OBJECT_TYPE":"PAYLOAD","TLE_LINE1":"1 45767U 20038AP  23050.77080317  .00019894  00000-0  13518-2 0  9996","TLE_LINE2":"2 45767  53.0543 177.1946 0001501  67.5361 292.5787 15.06369802149500","DECAY_DATE":null,"INCLINATION":"53.0543","MEAN_ELEMENT_THEORY":"SGP4","OBJECT_NAME":"STARLINK-1511","APOAPSIS":"548.346","ECCENTRICITY":"0.00015010","EPHEMERIS_TYPE":"0","RCS_SIZE":"LARGE","FILE":"3812762","NORAD_CAT_ID":"45767","REF_FRAME":"TEME","COUNTRY_CODE":"US","MEAN_MOTION_DDOT":"0.0000000000000","ARG_OF_PERICENTER":"67.5361","MEAN_MOTION":"15.06369802","EPOCH":"2023-02-19T18:29:57.393888","LAUNCH_DATE":"2020-06-13","BSTAR":"0.00135180000000","MEAN_ANOMALY":"292.5787","TIME_SYSTEM":"UTC","GP_ID":"226072399","MEAN_MOTION_DOT":"0.00019894","PERIAPSIS":"546.267","REV_AT_EPOCH":"14950","ELEMENT_SET_NO":"999","RA_OF_ASC_NODE":"177.1946","PERIOD":"95.594","OBJECT_ID":"2020-038AP"},{"MEAN_MOTION_DDOT":"0.0000000000000","COUNTRY_CODE":"US","REF_FRAME":"TEME","NORAD_CAT_ID":"45768","FILE":"3811911","RCS_SIZE":"LARGE","EPHEMERIS_TYPE":"0","ECCENTRICITY":"0.00009770","APOAPSIS":"547.843","OBJECT_NAME":"STARLINK-1521","INCLINATION":"53.0548","MEAN_ELEMENT_THEORY":"SGP4","DECAY_DATE":null,"TLE_LINE2":"2 45768  53.0548 177.2729 0000977  64.7248 295.3842 15.06415455149504","TLE_LINE1":"1 45768U 20038AQ  23050.75237463  .00018067  00000-0  12282-2 0  9999","OBJECT_TYPE":"PAYLOAD","CLASSIFICATION_TYPE":"U","SEMIMAJOR_AXIS":"6925.301","CENTER_NAME":"EARTH","SITE":"AFETR","OBJECT_ID":"2020-038AQ","PERIOD":"95.591","RA_OF_ASC_NODE":"177.2729","PERIAPSIS":"546.490","REV_AT_EPOCH":"14950","ELEMENT_SET_NO":"999","MEAN_MOTION_DOT":"0.00018067","GP_ID":"226056783","TIME_SYSTEM":"UTC","MEAN_ANOMALY":"295.3842","BSTAR":"0.00122820000000","LAUNCH_DATE":"2020-06-13","EPOCH":"2023-02-19T18:03:25.168032","MEAN_MOTION":"15.06415455","ARG_OF_PERICENTER":"64.7248"},{"MEAN_MOTION":"15.06433149","LAUNCH_DATE":"2020-06-13","EPOCH":"2023-02-19T13:51:15.903360","ARG_OF_PERICENTER":"97.6410","TIME_SYSTEM":"UTC","MEAN_ANOMALY":"262.4660","BSTAR":"0.00125220000000","GP_ID":"226043058","RA_OF_ASC_NODE":"198.0631","PERIOD":"95.590","OBJECT_ID":"2020-038AR","ELEMENT_SET_NO":"999","PERIAPSIS":"546.615","REV_AT_EPOCH":"14827","MEAN_MOTION_DOT":"0.00018436","SEMIMAJOR_AXIS":"6925.247","CLASSIFICATION_TYPE":"U","SITE":"AFETR","CENTER_NAME":"EARTH","OBJECT_NAME":"STARLINK-1459","INCLINATION":"53.0521","MEAN_ELEMENT_THEORY":"SGP4","TLE_LINE1":"1 45769U 20038AR  23050.57726740  .00018436  00000-0  12522-2 0  9998","OBJECT_TYPE":"PAYLOAD","DECAY_DATE":null,"TLE_LINE2":"2 45769  53.0521 198.0631 0000717  97.6410 262.4660 15.06433149148273","EPHEMERIS_TYPE":"0","NORAD_CAT_ID":"45769","REF_FRAME":"TEME","RCS_SIZE":"LARGE","FILE":"3811610","APOAPSIS":"547.609","ECCENTRICITY":"0.00007170","COUNTRY_CODE":"US","MEAN_MOTION_DDOT":"0.0000000000000"},{"OBJECT_TYPE":"PAYLOAD","TLE_LINE1":"1 45770U 20038AS  23050.58002608  .00017184  00000-0  11692-2 0  9997","TLE_LINE2":"2 45770  53.0529 158.0500 0001419  85.1667 274.9484 15.06415407148820","DECAY_DATE":null,"MEAN_ELEMENT_THEORY":"SGP4","INCLINATION":"53.0529","OBJECT_NAME":"STARLINK-1462","SITE":"AFETR","CENTER_NAME":"EARTH","SEMIMAJOR_AXIS":"6925.301","CLASSIFICATION_TYPE":"U","COUNTRY_CODE":"US","MEAN_MOTION_DDOT":"0.0000000000000","APOAPSIS":"548.149","ECCENTRICITY":"0.00014190","EPHEMERIS_TYPE":"0","RCS_SIZE":"LARGE","FILE":"3811610","REF_FRAME":"TEME","NORAD_CAT_ID":"45770","BSTAR":"0.00116920000000","MEAN_ANOMALY":"274.9484","TIME_SYSTEM":"UTC","ARG_OF_PERICENTER":"85.1667","MEAN_MOTION":"15.06415407","EPOCH":"2023-02-19T13:55:14.253312","LAUNCH_DATE":"2020-06-13","MEAN_MOTION_DOT":"0.00017184","PERIAPSIS":"546.184","ELEMENT_SET_NO":"999","REV_AT_EPOCH":"14882","PERIOD":"95.591","RA_OF_ASC_NODE":"158.0500","OBJECT_ID":"2020-038AS","GP_ID":"226043310"},{"GP_ID":"226043559","MEAN_MOTION_DOT":"0.00028460","PERIAPSIS":"546.246","REV_AT_EPOCH":"14882","ELEMENT_SET_NO":"999","RA_OF_ASC_NODE":"158.0796","PERIOD":"95.589","OBJECT_ID":"2020-038AT","ARG_OF_PERICENTER":"87.1953","MEAN_MOTION":"15.06450048","EPOCH":"2023-02-19T13:45:57.603168","LAUNCH_DATE":"2020-06-13","BSTAR":"0.00191920000000","MEAN_ANOMALY":"272.9171","TIME_SYSTEM":"UTC","APOAPSIS":"547.875","ECCENTRICITY":"0.00011760","EPHEMERIS_TYPE":"0","RCS_SIZE":"LARGE","FILE":"3811610","REF_FRAME":"TEME","NORAD_CAT_ID":"45771","COUNTRY_CODE":"US","MEAN_MOTION_DDOT":"0.0000000000000","CENTER_NAME":"EARTH","SITE":"AFETR","SEMIMAJOR_AXIS":"6925.195","CLASSIFICATION_TYPE":"U","OBJECT_TYPE":"PAYLOAD","TLE_LINE1":"1 45771U 20038AT  23050.57358337  .00028460  00000-0  19192-2 0  9992","TLE_LINE2":"2 45771  53.0523 158.0796 0001176  87.1953 272.9171 15.06450048148823","DECAY_DATE":null,"MEAN_ELEMENT_THEORY":"SGP4","INCLINATION":"53.0523","OBJECT_NAME":"STARLINK-1463"},{"GP_ID":"226059326","OBJECT_ID":"2020-038AU","PERIOD":"95.589","RA_OF_ASC_NODE":"157.5354","MEAN_MOTION_DOT":"0.00008571","PERIAPSIS":"546.238","REV_AT_EPOCH":"14996","ELEMENT_SET_NO":"999","EPOCH":"2023-02-19T16:41:02.701824","LAUNCH_DATE":"2020-06-13","MEAN_MOTION":"15.06441624","ARG_OF_PERICENTER":"80.4273","TIME_SYSTEM":"UTC","BSTAR":"0.00059292000000","MEAN_ANOMALY":"279.6854","RCS_SIZE":"LARGE","FILE":"3812018","REF_FRAME":"TEME","NORAD_CAT_ID":"45772","EPHEMERIS_TYPE":"0","ECCENTRICITY":"0.00012240","APOAPSIS":"547.934","MEAN_MOTION_DDOT":"0.0000000000000","COUNTRY_CODE":"US","CLASSIFICATION_TYPE":"U","SEMIMAJOR_AXIS":"6925.221","SITE":"AFETR","CENTER_NAME":"EARTH","MEAN_ELEMENT_THEORY":"SGP4","INCLINATION":"53.0526","OBJECT_NAME":"STARLINK-1470","TLE_LINE2":"2 45772  53.0526 157.5354 0001224  80.4273 279.6854 15.06441624149964","DECAY_DATE":null,"TLE_LINE1":"1 45772U 20038AU  23050.69517016  .00008571  00000-0  59292-3 0  9994","OBJECT_TYPE":"PAYLOAD"},{"DECAY_DATE":null,"TLE_LINE2":"2 45773  53.0533 157.2696 0001235  82.9760 277.1369 15.06421379149823","TLE_LINE1":"1 45773U 20038AV  23050.75420737  .00015623  00000-0  10648-2 0  9992","OBJECT_TYPE":"PAYLOAD","OBJECT_NAME":"STARLINK-1482","INCLINATION":"53.0533","MEAN_ELEMENT_THEORY":"SGP4","SITE":"AFETR","CENTER_NAME":"EARTH","CLASSIFICATION_TYPE":"U","SEMIMAJOR_AXIS":"6925.283","MEAN_MOTION_DDOT":"0.0000000000000","COUNTRY_CODE":"US","ECCENTRICITY":"0.00012350","APOAPSIS":"548.003","NORAD_CAT_ID":"45773","REF_FRAME":"TEME","FILE":"3812035","RCS_SIZE":"LARGE","EPHEMERIS_TYPE":"0","MEAN_ANOMALY":"277.1369","BSTAR":"0.00106480000000","TIME_SYSTEM":"UTC","ARG_OF_PERICENTER":"82.9760","LAUNCH_DATE":"2020-06-13","EPOCH":"2023-02-19T18:06:03.516768","MEAN_MOTION":"15.06421379","PERIAPSIS":"546.293","ELEMENT_SET_NO":"999","REV_AT_EPOCH":"14982","MEAN_MOTION_DOT":"0.00015623","OBJECT_ID":"2020-038AV","PERIOD":"95.591","RA_OF_ASC_NODE":"157.2696","GP_ID":"226059409"},{"GP_ID":"226057020","OBJECT_ID":"2020-038AW","PERIOD":"95.589","RA_OF_ASC_NODE":"157.4019","MEAN_MOTION_DOT":"0.00027277","ELEMENT_SET_NO":"999","PERIAPSIS":"546.335","REV_AT_EPOCH":"14997","EPOCH":"2023-02-19T17:23:34.270944","LAUNCH_DATE":"2020-06-13","MEAN_MOTION":"15.06454937","ARG_OF_PERICENTER":"81.4841","TIME_SYSTEM":"UTC","BSTAR":"0.00184030000000","MEAN_ANOMALY":"278.6264","RCS_SIZE":"LARGE","FILE":"3811909","REF_FRAME":"TEME","NORAD_CAT_ID":"45774","EPHEMERIS_TYPE":"0","ECCENTRICITY":"0.00010260","APOAPSIS":"547.756","MEAN_MOTION_DDOT":"0.0000000000000","COUNTRY_CODE":"US","CLASSIFICATION_TYPE":"U","SEMIMAJOR_AXIS":"6925.180","SITE":"AFETR","CENTER_NAME":"EARTH","MEAN_ELEMENT_THEORY":"SGP4","INCLINATION":"53.0528","OBJECT_NAME":"STARLINK-1485","TLE_LINE2":"2 45774  53.0528 157.4019 0001026  81.4841 278.6264 15.06454937149973","DECAY_DATE":null,"TLE_LINE1":"1 45774U 20038AW  23050.72470221  .00027277  00000-0  18403-2 0  9998","OBJECT_TYPE":"PAYLOAD"}];
